IRIDIUM 36 [-]          
1 24967U 97056C   23294.45531866  .00001075  00000+0  36028-3 0  9997
2 24967  86.3954  66.8801 0002130  96.5649 263.5790 14.36463789365376
IRIDIUM 39 [-]          
1 25042U 97069D   23294.51203474  .00001261  00000+0  33755-3 0  9995
2 25042  86.3870 110.1127 0019088 157.7479 202.4557 14.47428941361443
IRIDIUM 38 [-]          
1 25043U 97069E   23294.46916752  .00000761  00000+0  25077-3 0  9992
2 25043  86.3931 127.3910 0001164  10.4436 349.6785 14.36923992359084
IRIDIUM 44 [-]          
1 25078U 97077B   23294.48768920  .00000768  00000+0  24258-3 0  9990
2 25078  86.3912 116.3642 0001789 145.9203 214.2110 14.39027392356730
IRIDIUM 45 [-]          
1 25104U 97082A   23294.57023728  .00011245  00000+0  71876-3 0  9996
2 25104  86.3765 334.1097 0179674  27.3411 333.7133 14.96028552360956
IRIDIUM 24 [-]          
1 25105U 97082B   23294.38396522  .00000857  00000+0  26180-3 0  9996
2 25105  86.3925 336.4173 0009306 274.9878  85.0259 14.40787491356095
IRIDIUM 51 [-]          
1 25262U 98018A   23294.57664287  .00012531  00000+0  69443-3 0  9998
2 25262  86.3960 344.6169 0163226 341.5887  17.9479 15.02908428355335
